{
  "norad_id": 68825,
  "name": "STARLINK-37015",
  "history": [
    {
      "epoch": "2026-04-27T12:52:16.519584Z",
      "apogee_km": 261.84284940500766,
      "perigee_km": 260.4407665063445,
      "latitude_deg": 3.659055069719349e-05,
      "longitude_deg": -85.90174199048441,
      "height_km": 263.70455246433903,
      "semi_major_axis_km": 6639.278807955676,
      "eccentricity": 0.00010559,
      "inclination_deg": 97.2854,
      "raan_deg": 322.6918,
      "arg_perigee_deg": 337.0621,
      "mean_anomaly_deg": 23.0613,
      "mean_motion_rev_day": 16.04801797
    }
  ]
}