STARLINK-37015          
1 68825U 26089Z   26117.53630231 -.00710311  18373-3 -10601-2 0  9994
2 68825  97.2854 322.6918 0001055 337.0621  23.0613 16.04801797   716
